{
    "links": {
        "self": "http://www.neowsapp.com/rest/v1/neo/54076014?api_key=iIulBulltgU6a56xZRHN4H3l9WmuAYTsLGpBGhQ2"
    },
    "id": "54076014",
    "neo_reference_id": "54076014",
    "name": "(2020 UD4)",
    "designation": "2020 UD4",
    "nasa_jpl_url": "http://ssd.jpl.nasa.gov/sbdb.cgi?sstr=54076014",
    "absolute_magnitude_h": 26.7,
    "estimated_diameter": {
        "kilometers": {
            "estimated_diameter_min": 0.0121494041,
            "estimated_diameter_max": 0.0271668934
        },
        "meters": {
            "estimated_diameter_min": 12.14940408,
            "estimated_diameter_max": 27.1668934089
        },
        "miles": {
            "estimated_diameter_min": 0.0075492874,
            "estimated_diameter_max": 0.0168807197
        },
        "feet": {
            "estimated_diameter_min": 39.8602508817,
            "estimated_diameter_max": 89.1302305717
        }
    },
    "is_potentially_hazardous_asteroid": false,
    "close_approach_data": [
        {
            "close_approach_date": "2020-10-29",
            "close_approach_date_full": "2020-Oct-29 09:12",
            "epoch_date_close_approach": 1603962720000,
            "relative_velocity": {
                "kilometers_per_second": "7.5527345088",
                "kilometers_per_hour": "27189.8442315625",
                "miles_per_hour": "16894.7118226617"
            },
            "miss_distance": {
                "astronomical": "0.0242905046",
                "lunar": "9.4490062894",
                "kilometers": "3633807.749385202",
                "miles": "2257943.4332397076"
            },
            "orbiting_body": "Earth"
        }
    ],
    "orbital_data": {
        "orbit_id": "1",
        "orbit_determination_date": "2020-10-23 09:42:37",
        "first_observation_date": "2020-10-22",
        "last_observation_date": "2020-10-23",
        "data_arc_in_days": 1,
        "observations_used": 17,
        "orbit_uncertainty": "8",
        "minimum_orbit_intersection": ".00988403",
        "jupiter_tisserand_invariant": "3.714",
        "epoch_osculation": "2459144.5",
        "eccentricity": ".4937068349205303",
        "semi_major_axis": "1.964040317159423",
        "inclination": "4.906420482135849",
        "ascending_node_longitude": "221.61991256",
        "orbital_period": "1005.365608360073",
        "perihelion_distance": ".9943801885183299",
        "perihelion_argument": "193.4005739238377",
        "aphelion_distance": "2.933700445800516",
        "perihelion_time": "2459166.898025638982",
        "mean_anomaly": "351.9797443208882",
        "mean_motion": ".3580786899874394",
        "equinox": "J2000",
        "orbit_class": {
            "orbit_class_type": "APO",
            "orbit_class_description": "Near-Earth asteroid orbits which cross the Earth’s orbit similar to that of 1862 Apollo",
            "orbit_class_range": "a (semi-major axis) > 1.0 AU; q (perihelion) < 1.017 AU"
        }
    },
    "is_sentry_object": false
}